CTC2_L_00524012-13
1 21698U 23668IB  26070.40849537  .00000000  00000+0  00000-0 0  9995
2 21698  97.6000 132.0000 0000000   0.0000 110.1818 15.13676342    15
CTC2_L_00524012-14
1 21699U 24404MB  26070.40849537  .00000000  00000+0  00000-0 0  9995
2 21699  97.6000 132.0000 0000000   0.0000 118.3636 15.13676342    14
CTC2_L_00524012-15
1 21700U 22958OZ  26070.40849537  .00000000  00000+0  00000-0 0  9990
2 21700  97.6000 132.0000 0000000   0.0000 126.5455 15.13676342    17
CTC2_L_00524012-16
1 21701U 25271WS  26070.40849537  .00000000  00000+0  00000-0 0  9992
2 21701  97.6000 132.0000 0000000   0.0000 134.7273 15.13676342    17
CTC2_L_00524012-17
1 21702U 24393TZ  26070.40849537  .00000000  00000+0  00000-0 0  9997
2 21702  97.6000 132.0000 0000000   0.0000 142.9091 15.13676342    17
CTC2_L_00524012-18
1 21703U 24125DZ  26070.40849537  .00000000  00000+0  00000-0 0  9991
2 21703  97.6000 132.0000 0000000   0.0000 151.0909 15.13676342    17
CTC2_L_00524012-19
1 21704U 24201XU  26070.40849537  .00000000  00000+0  00000-0 0  9997
2 21704  97.6000 132.0000 0000000   0.0000 159.2727 15.13676342    16
CTC2_L_00524012-20
1 21705U 25712CZ  26070.40849537  .00000000  00000+0  00000-0 0  9996
2 21705  97.6000 132.0000 0000000   0.0000 167.4545 15.13676342    16
CTC2_L_00524012-21
1 21706U 26434UV  26070.40849537  .00000000  00000+0  00000-0 0  9999
2 21706  97.6000 132.0000 0000000   0.0000 175.6364 15.13676342    17
CTC2_L_00524012-22
1 21707U 22306UE  26070.40849537  .00000000  00000+0  00000-0 0  9994
2 21707  97.6000 132.0000 0000000   0.0000 183.8182 15.13676342    17
CTC2_L_00524012-23
1 21708U 22762CK  26070.40849537  .00000000  00000+0  00000-0 0  9991
2 21708  97.6000 132.0000 0000000   0.0000 192.0000 15.13676342    19
CTC2_L_00524012-24
1 21709U 23267QQ  26070.40849537  .00000000  00000+0  00000-0 0  9993
2 21709  97.6000 132.0000 0000000   0.0000 200.1818 15.13676342    18
CTC2_L_00524012-25
1 21710U 25892ZK  26070.40849537  .00000000  00000+0  00000-0 0  9991
2 21710  97.6000 132.0000 0000000   0.0000 208.3636 15.13676342    18
CTC2_L_00524012-26
1 21711U 23061MU  26070.40849537  .00000000  00000+0  00000-0 0  9998
2 21711  97.6000 132.0000 0000000   0.0000 216.5455 15.13676342    19
CTC2_L_00524012-27
1 21712U 25401EH  26070.40849537  .00000000  00000+0  00000-0 0  9999
2 21712  97.6000 132.0000 0000000   0.0000 224.7273 15.13676342    19
CTC2_L_00524012-28
1 21713U 24492VQ  26070.40849537  .00000000  00000+0  00000-0 0  9999
2 21713  97.6000 132.0000 0000000   0.0000 232.9091 15.13676342    19
CTC2_L_00524012-29
1 21714U 26538Q   26070.40849537  .00000000  00000+0  00000-0 0  9993
2 21714  97.6000 132.0000 0000000   0.0000 241.0909 15.13676342    19
CTC2_L_00524012-30
1 21715U 25205NS  26070.40849537  .00000000  00000+0  00000-0 0  9994
2 21715  97.6000 132.0000 0000000   0.0000 249.2727 15.13676342    18
CTC2_L_00524012-31
1 21716U 26067KJ  26070.40849537  .00000000  00000+0  00000-0 0  9992
2 21716  97.6000 132.0000 0000000   0.0000 257.4545 15.13676342    18
CTC2_L_00524012-32
1 21717U 24131ER  26070.40849537  .00000000  00000+0  00000-0 0  9993
2 21717  97.6000 132.0000 0000000   0.0000 265.6364 15.13676342    19
CTC2_L_00524012-33
1 21718U 22191KW  26070.40849537  .00000000  00000+0  00000-0 0  9998
2 21718  97.6000 132.0000 0000000   0.0000 273.8182 15.13676342    19
CTC2_L_00524012-34
1 21719U 25140ZF  26070.40849537  .00000000  00000+0  00000-0 0  9996
2 21719  97.6000 132.0000 0000000   0.0000 282.0000 15.13676342    11
CTC2_L_00524012-35
1 21720U 23207VJ  26070.40849537  .00000000  00000+0  00000-0 0  9990
2 21720  97.6000 132.0000 0000000   0.0000 290.1818 15.13676342    10
CTC2_L_00524012-36
1 21721U 25751HF  26070.40849537  .00000000  00000+0  00000-0 0  9997
2 21721  97.6000 132.0000 0000000   0.0000 298.3636 15.13676342    19
CTC2_L_00524012-37
1 21722U 23059CJ  26070.40849537  .00000000  00000+0  00000-0 0  9997
2 21722  97.6000 132.0000 0000000   0.0000 306.5455 15.13676342    11
CTC2_L_00524012-38
1 21723U 24133ID  26070.40849537  .00000000  00000+0  00000-0 0  9992
2 21723  97.6000 132.0000 0000000   0.0000 314.7273 15.13676342    11
CTC2_L_00524012-39
1 21724U 26056CJ  26070.40849537  .00000000  00000+0  00000-0 0  9999
2 21724  97.6000 132.0000 0000000   0.0000 322.9091 15.13676342    11
CTC2_L_00524012-40
1 21725U 22304XU  26070.40849537  .00000000  00000+0  00000-0 0  9992
2 21725  97.6000 132.0000 0000000   0.0000 331.0909 15.13676342    11
CTC2_L_00524012-41
1 21726U 24588IQ  26070.40849537  .00000000  00000+0  00000-0 0  9999
2 21726  97.6000 132.0000 0000000   0.0000 339.2727 15.13676342    10
CTC2_L_00524012-42
1 21727U 26525KW  26070.40849537  .00000000  00000+0  00000-0 0  9993
2 21727  97.6000 132.0000 0000000   0.0000 347.4545 15.13676342    10
CTC2_L_00524012-43
1 21728U 22863T   26070.40849537  .00000000  00000+0  00000-0 0  9995
2 21728  97.6000 132.0000 0000000   0.0000 355.6364 15.13676342    11
CTC2_L_00524012-44
1 21729U 22121ZV  26070.40849537  .00000000  00000+0  00000-0 0  9993
2 21729  97.6000 132.0000 0000000   0.0000   3.8182 15.13676342    12
CTC2_L_00524013-01
1 21730U 24339WN  26070.40849537  .00000000  00000+0  00000-0 0  9998
2 21730  97.6000 144.0000 0000000   0.0000  13.0909 15.13676342    17
CTC2_L_00524013-02
1 21731U 23576DV  26070.40849537  .00000000  00000+0  00000-0 0  9991
2 21731  97.6000 144.0000 0000000   0.0000  21.2727 15.13676342    17
CTC2_L_00524013-03
1 21732U 23467ZD  26070.40849537  .00000000  00000+0  00000-0 0  9991
2 21732  97.6000 144.0000 0000000   0.0000  29.4545 15.13676342    16
CTC2_L_00524013-04
1 21733U 23104WE  26070.40849537  .00000000  00000+0  00000-0 0  9990
2 21733  97.6000 144.0000 0000000   0.0000  37.6364 15.13676342    17
CTC2_L_00524013-05
1 21734U 24265YZ  26070.40849537  .00000000  00000+0  00000-0 0  9990
2 21734  97.6000 144.0000 0000000   0.0000  45.8182 15.13676342    17
CTC2_L_00524013-06
1 21735U 22953IK  26070.40849537  .00000000  00000+0  00000-0 0  9993
2 21735  97.6000 144.0000 0000000   0.0000  54.0000 15.13676342    19
CTC2_L_00524013-07
1 21736U 26785IN  26070.40849537  .00000000  00000+0  00000-0 0  9991
2 21736  97.6000 144.0000 0000000   0.0000  62.1818 15.13676342    17
CTC2_L_00524013-08
1 21737U 23823YZ  26070.40849537  .00000000  00000+0  00000-0 0  9992
2 21737  97.6000 144.0000 0000000   0.0000  70.3636 15.13676342    17
CTC2_L_00524013-09
1 21738U 23422LA  26070.40849537  .00000000  00000+0  00000-0 0  9998
2 21738  97.6000 144.0000 0000000   0.0000  78.5455 15.13676342    17
CTC2_L_00524013-10
1 21739U 22811NL  26070.40849537  .00000000  00000+0  00000-0 0  9990
2 21739  97.6000 144.0000 0000000   0.0000  86.7273 15.13676342    17
CTC2_L_00524013-11
1 21740U 26588JS  26070.40849537  .00000000  00000+0  00000-0 0  9997
2 21740  97.6000 144.0000 0000000   0.0000  94.9091 15.13676342    18
CTC2_L_00524013-12
1 21741U 25357MZ  26070.40849537  .00000000  00000+0  00000-0 0  9991
2 21741  97.6000 144.0000 0000000   0.0000 103.0909 15.13676342    19
CTC2_L_00524013-13
1 21742U 22338AI  26070.40849537  .00000000  00000+0  00000-0 0  9998
2 21742  97.6000 144.0000 0000000   0.0000 111.2727 15.13676342    19
CTC2_L_00524013-14
1 21743U 23693YR  26070.40849537  .00000000  00000+0  00000-0 0  9994
2 21743  97.6000 144.0000 0000000   0.0000 119.4545 15.13676342    18
CTC2_L_00524013-15
1 21744U 23770CJ  26070.40849537  .00000000  00000+0  00000-0 0  9991
2 21744  97.6000 144.0000 0000000   0.0000 127.6364 15.13676342    19
CTC2_L_00524013-16
1 21745U 25737GF  26070.40849537  .00000000  00000+0  00000-0 0  9997
2 21745  97.6000 144.0000 0000000   0.0000 135.8182 15.13676342    19
CTC2_L_00524013-17
1 21746U 23289DB  26070.40849537  .00000000  00000+0  00000-0 0  9998
2 21746  97.6000 144.0000 0000000   0.0000 144.0000 15.13676342    11
CTC2_L_00524013-18
1 21747U 26172IU  26070.40849537  .00000000  00000+0  00000-0 0  9993
2 21747  97.6000 144.0000 0000000   0.0000 152.1818 15.13676342    19
CTC2_L_00524013-19
1 21748U 23125QY  26070.40849537  .00000000  00000+0  00000-0 0  9999
2 21748  97.6000 144.0000 0000000   0.0000 160.3636 15.13676342    19
CTC2_L_00524013-20
1 21749U 24053AN  26070.40849537  .00000000  00000+0  00000-0 0  9991
2 21749  97.6000 144.0000 0000000   0.0000 168.5455 15.13676342    19
CTC2_L_00524013-21
1 21750U 25672SZ  26070.40849537  .00000000  00000+0  00000-0 0  9991
2 21750  97.6000 144.0000 0000000   0.0000 176.7273 15.13676342    10
CTC2_L_00524013-22
1 21751U 25873XR  26070.40849537  .00000000  00000+0  00000-0 0  9995
2 21751  97.6000 144.0000 0000000   0.0000 184.9091 15.13676342    10
CTC2_L_00524013-23
1 21752U 22315ET  26070.40849537  .00000000  00000+0  00000-0 0  9994
2 21752  97.6000 144.0000 0000000   0.0000 193.0909 15.13676342    10
CTC2_L_00524013-24
1 21753U 23722FH  26070.40849537  .00000000  00000+0  00000-0 0  9998
2 21753  97.6000 144.0000 0000000   0.0000 201.2727 15.13676342    11
CTC2_L_00524013-25
1 21754U 24760FU  26070.40849537  .00000000  00000+0  00000-0 0  9992
2 21754  97.6000 144.0000 0000000   0.0000 209.4545 15.13676342    10
CTC2_L_00524013-26
1 21755U 22073DJ  26070.40849537  .00000000  00000+0  00000-0 0  9998
2 21755  97.6000 144.0000 0000000   0.0000 217.6364 15.13676342    11
CTC2_L_00524013-27
1 21756U 24085QD  26070.40849537  .00000000  00000+0  00000-0 0  9994
2 21756  97.6000 144.0000 0000000   0.0000 225.8182 15.13676342    11
CTC2_L_00524013-28
1 21757U 25246RG  26070.40849537  .00000000  00000+0  00000-0 0  9995
2 21757  97.6000 144.0000 0000000   0.0000 234.0000 15.13676342    13
CTC2_L_00524013-29
1 21758U 24044SK  26070.40849537  .00000000  00000+0  00000-0 0  9991
2 21758  97.6000 144.0000 0000000   0.0000 242.1818 15.13676342    11
CTC2_L_00524013-30
1 21759U 24172GP  26070.40849537  .00000000  00000+0  00000-0 0  9994
2 21759  97.6000 144.0000 0000000   0.0000 250.3636 15.13676342    11
